[
    {
        "Altitude(m)": 715836.3760927755,
        "Argument of Periapsis(deg)": 0.0,
        "Eccentricity": 0.0,
        "Inclination(deg)": 45.0,
        "Latitude(deg)": -40.20038136696003,
        "Longitude(deg)": 47.22851571271289,
        "Mean Anomaly(deg)": -114.54550000000008,
        "RAAN(deg)": 270.0,
        "Satellite Name": "Constellation 1 1203",
        "Satellite Number": 1203,
        "Semi-Major Axis(m)": 7083131.272910544,
        "Time(s)": 0
    },
    {
        "Altitude(m)": 715845.9907787213,
        "Argument of Periapsis(deg)": 5.994800624540561e-05,
        "Eccentricity": 0.0,
        "Inclination(deg)": 45.0,
        "Latitude(deg)": -40.223616509966035,
        "Longitude(deg)": 47.29750504504176,
        "Mean Anomaly(deg)": -114.4847988597501,
        "RAAN(deg)": 269.9999434108344,
        "Satellite Name": "Constellation 1 1203",
        "Satellite Number": 1203,
        "Semi-Major Axis(m)": 7083131.272910544,
        "Time(s)": 1
    },
    {
        "Altitude(m)": 715855.5865455229,
        "Argument of Periapsis(deg)": 0.00011989601249081122,
        "Eccentricity": 0.0,
        "Inclination(deg)": 45.0,
        "Latitude(deg)": -40.246805349551394,
        "Longitude(deg)": 47.36654416067025,
        "Mean Anomaly(deg)": -114.42409771950027,
        "RAAN(deg)": 269.9998868216689,
        "Satellite Name": "Constellation 1 1203",
        "Satellite Number": 1203,
        "Semi-Major Axis(m)": 7083131.272910544,
        "Time(s)": 2
    },
    {
        "Altitude(m)": 715865.1633581313,
        "Argument of Periapsis(deg)": 0.00017984401873621686,
        "Eccentricity": 0.0,
        "Inclination(deg)": 45.0,
        "Latitude(deg)": -40.269947817178306,
        "Longitude(deg)": 47.4356330351042,
        "Mean Anomaly(deg)": -114.36339657925035,
        "RAAN(deg)": 269.99983023250326,
        "Satellite Name": "Constellation 1 1203",
        "Satellite Number": 1203,
        "Semi-Major Axis(m)": 7083131.272910544,
        "Time(s)": 3
    },
    {
        "Altitude(m)": 715874.7211815655,
        "Argument of Periapsis(deg)": 0.00023979202498162244,
        "Eccentricity": 0.0,
        "Inclination(deg)": 45.0,
        "Latitude(deg)": -40.29304384432325,
        "Longitude(deg)": 47.50477164338758,
        "Mean Anomaly(deg)": -114.30269543900042,
        "RAAN(deg)": 269.99977364333773,
        "Satellite Name": "Constellation 1 1203",
        "Satellite Number": 1203,
        "Semi-Major Axis(m)": 7083131.272910544,
        "Time(s)": 4
    },
    {
        "Altitude(m)": 715884.2599808973,
        "Argument of Periapsis(deg)": 0.00029974003122702807,
        "Eccentricity": 0.0,
        "Inclination(deg)": 45.0,
        "Latitude(deg)": -40.316093362477496,
        "Longitude(deg)": 47.57395996010088,
        "Mean Anomaly(deg)": -114.24199429875046,
        "RAAN(deg)": 269.99971705417215,
        "Satellite Name": "Constellation 1 1203",
        "Satellite Number": 1203,
        "Semi-Major Axis(m)": 7083131.272910544,
        "Time(s)": 5
    },
    {
        "Altitude(m)": 715893.7797212887,
        "Argument of Periapsis(deg)": 0.00035968803747243373,
        "Eccentricity": 0.0,
        "Inclination(deg)": 45.0,
        "Latitude(deg)": -40.339096303147876,
        "Longitude(deg)": 47.64319795936036,
        "Mean Anomaly(deg)": -114.18129315850072,
        "RAAN(deg)": 269.9996604650066,
        "Satellite Name": "Constellation 1 1203",
        "Satellite Number": 1203,
        "Semi-Major Axis(m)": 7083131.272910544,
        "Time(s)": 6
    },
    {
        "Altitude(m)": 715903.2803679515,
        "Argument of Periapsis(deg)": 0.00041963604371783933,
        "Eccentricity": 0.0,
        "Inclination(deg)": 45.0,
        "Latitude(deg)": -40.362052597857925,
        "Longitude(deg)": 47.712485446720514,
        "Mean Anomaly(deg)": -114.12059201825076,
        "RAAN(deg)": 269.99960387584105,
        "Satellite Name": "Constellation 1 1203",
        "Satellite Number": 1203,
        "Semi-Major Axis(m)": 7083131.272910544,
        "Time(s)": 7
    },
    {
        "Altitude(m)": 715912.7618861691,
        "Argument of Periapsis(deg)": 0.0004795840499632449,
        "Eccentricity": 0.0,
        "Inclination(deg)": 45.0,
        "Latitude(deg)": -40.38496217814704,
        "Longitude(deg)": 47.78182273155865,
        "Mean Anomaly(deg)": -114.05989087800077,
        "RAAN(deg)": 269.9995472866754,
        "Satellite Name": "Constellation 1 1203",
        "Satellite Number": 1203,
        "Semi-Major Axis(m)": 7083131.272910544,
        "Time(s)": 8
    },
    {
        "Altitude(m)": 715922.224241297,
        "Argument of Periapsis(deg)": 0.0005395320562086505,
        "Eccentricity": 0.0,
        "Inclination(deg)": 45.0,
        "Latitude(deg)": -40.40782497557299,
        "Longitude(deg)": 47.851209618493705,
        "Mean Anomaly(deg)": -113.99918973775092,
        "RAAN(deg)": 269.9994906975099,
        "Satellite Name": "Constellation 1 1203",
        "Satellite Number": 1203,
        "Semi-Major Axis(m)": 7083131.272910544,
        "Time(s)": 9
    },
    {
        "Altitude(m)": 715931.6673987596,
        "Argument of Periapsis(deg)": 0.0005994800624540561,
        "Eccentricity": 0.0,
        "Inclination(deg)": 45.0,
        "Latitude(deg)": -40.43064092171153,
        "Longitude(deg)": 47.92064607977245,
        "Mean Anomaly(deg)": -113.93848859750105,
        "RAAN(deg)": 269.9994341083443,
        "Satellite Name": "Constellation 1 1203",
        "Satellite Number": 1203,
        "Semi-Major Axis(m)": 7083131.272910544,
        "Time(s)": 10
    },
    {
        "Altitude(m)": 715941.0913240347,
        "Argument of Periapsis(deg)": 0.0006594280686994618,
        "Eccentricity": 0.0,
        "Inclination(deg)": 45.0,
        "Latitude(deg)": -40.45340994815731,
        "Longitude(deg)": 47.990132087171084,
        "Mean Anomaly(deg)": -113.87778745725112,
        "RAAN(deg)": 269.9993775191788,
        "Satellite Name": "Constellation 1 1203",
        "Satellite Number": 1203,
        "Semi-Major Axis(m)": 7083131.272910544,
        "Time(s)": 11
    },
    {
        "Altitude(m)": 715950.4959826854,
        "Argument of Periapsis(deg)": 0.0007193760749448675,
        "Eccentricity": 0.0,
        "Inclination(deg)": 45.0,
        "Latitude(deg)": -40.476131986524415,
        "Longitude(deg)": 48.059667611993724,
        "Mean Anomaly(deg)": -113.81708631700114,
        "RAAN(deg)": 269.9993209300132,
        "Satellite Name": "Constellation 1 1203",
        "Satellite Number": 1203,
        "Semi-Major Axis(m)": 7083131.272910544,
        "Time(s)": 12
    },
    {
        "Altitude(m)": 715959.8813403359,
        "Argument of Periapsis(deg)": 0.000779324081190273,
        "Eccentricity": 0.0,
        "Inclination(deg)": 45.0,
        "Latitude(deg)": -40.49880696844718,
        "Longitude(deg)": 48.12925262507152,
        "Mean Anomaly(deg)": -113.75638517675141,
        "RAAN(deg)": 269.9992643408476,
        "Satellite Name": "Constellation 1 1203",
        "Satellite Number": 1203,
        "Semi-Major Axis(m)": 7083131.272910544,
        "Time(s)": 13
    },
    {
        "Altitude(m)": 715969.247362679,
        "Argument of Periapsis(deg)": 0.0008392720874356787,
        "Eccentricity": 0.0,
        "Inclination(deg)": 45.0,
        "Latitude(deg)": -40.52143482558098,
        "Longitude(deg)": 48.198887096762185,
        "Mean Anomaly(deg)": -113.69568403650139,
        "RAAN(deg)": 269.99920775168204,
        "Satellite Name": "Constellation 1 1203",
        "Satellite Number": 1203,
        "Semi-Major Axis(m)": 7083131.272910544,
        "Time(s)": 14
    },
    {
        "Altitude(m)": 715978.5940154772,
        "Argument of Periapsis(deg)": 0.0008992200936810842,
        "Eccentricity": 0.0,
        "Inclination(deg)": 45.0,
        "Latitude(deg)": -40.54401548960279,
        "Longitude(deg)": 48.268570828850265,
        "Mean Anomaly(deg)": -113.63498289625146,
        "RAAN(deg)": 269.99915116251645,
        "Satellite Name": "Constellation 1 1203",
        "Satellite Number": 1203,
        "Semi-Major Axis(m)": 7083131.272910544,
        "Time(s)": 15
    },
    {
        "Altitude(m)": 715987.921264558,
        "Argument of Periapsis(deg)": 0.0009591680999264898,
        "Eccentricity": 0.0,
        "Inclination(deg)": 45.0,
        "Latitude(deg)": -40.56654889221115,
        "Longitude(deg)": 48.338304126934595,
        "Mean Anomaly(deg)": -113.57428175600161,
        "RAAN(deg)": 269.99909457335093,
        "Satellite Name": "Constellation 1 1203",
        "Satellite Number": 1203,
        "Semi-Major Axis(m)": 7083131.272910544,
        "Time(s)": 16
    },
    {
        "Altitude(m)": 715997.2290758219,
        "Argument of Periapsis(deg)": 0.0010191161061718953,
        "Eccentricity": 0.0,
        "Inclination(deg)": 45.0,
        "Latitude(deg)": -40.58903496512837,
        "Longitude(deg)": 48.40808679184592,
        "Mean Anomaly(deg)": -113.51358061575178,
        "RAAN(deg)": 269.9990379841853,
        "Satellite Name": "Constellation 1 1203",
        "Satellite Number": 1203,
        "Semi-Major Axis(m)": 7083131.272910544,
        "Time(s)": 17
    },
    {
        "Altitude(m)": 716006.5174152377,
        "Argument of Periapsis(deg)": 0.001079064112417301,
        "Eccentricity": 0.0,
        "Inclination(deg)": 45.0,
        "Latitude(deg)": -40.611473640100066,
        "Longitude(deg)": 48.47791879203265,
        "Mean Anomaly(deg)": -113.4528794755018,
        "RAAN(deg)": 269.99898139501977,
        "Satellite Name": "Constellation 1 1203",
        "Satellite Number": 1203,
        "Semi-Major Axis(m)": 7083131.272910544,
        "Time(s)": 18
    }
]